[{"OBJECT_NAME":"STARLINK-34763","OBJECT_ID":"2025-176J","EPOCH":"2026-03-09T11:58:49.171008","MEAN_MOTION":15.30192058,"ECCENTRICITY":0.00010749,"INCLINATION":53.1597,"RA_OF_ASC_NODE":153.4452,"ARG_OF_PERICENTER":65.1532,"MEAN_ANOMALY":294.958,"EPHEMERIS_TYPE":0,"CLASSIFICATION_TYPE":"U","NORAD_CAT_ID":65206,"ELEMENT_SET_NO":999,"REV_AT_EPOCH":3308,"BSTAR":0.00098796265,"MEAN_MOTION_DOT":0.00029008,"MEAN_MOTION_DDOT":0},{"OBJECT_NAME":"FENGYUN 1C DEB","OBJECT_ID":"1999-025AMU","EPOCH":"2026-03-09T13:46:16.276800","MEAN_MOTION":15.41895871,"ECCENTRICITY":0.0043781,"INCLINATION":98.2926,"RA_OF_ASC_NODE":203.1751,"ARG_OF_PERICENTER":231.7233,"MEAN_ANOMALY":128.007,"EPHEMERIS_TYPE":0,"CLASSIFICATION_TYPE":"U","NORAD_CAT_ID":30613,"ELEMENT_SET_NO":999,"REV_AT_EPOCH":717,"BSTAR":0.0052699,"MEAN_MOTION_DOT":0.00238104,"MEAN_MOTION_DDOT":0}]
